BEIJING 1               
1 28890U 05043A   20358.14846288  .00000025  00000-0  14256-4 0  9997
2 28890  98.0539 121.7009 0016512  73.7280 286.5726 14.61312626808076
HJ-1A                   
1 33320U 08041A   20358.20034754 -.00000174  00000-0 -17452-4 0  9994
2 33320  97.7623  43.3796 0026529 173.8445 186.3096 14.77098067662461
HJ-1B                   
1 33321U 08041B   20358.24105641  .00000145  00000-0  27351-4 0  9998
2 33321  97.7706  45.9600 0034182 204.9403 155.0168 14.77303312662476
YAOGAN 4                
1 33446U 08061A   20358.14691973  .00000126  00000-0  24823-4 0  9995
2 33446  97.7537 306.0293 0017663  88.3036 272.0198 14.77071156649685
DEIMOS-1                
1 35681U 09041A   20358.14525459  .00000054  00000-0  16029-4 0  9991
2 35681  97.7821 223.8495 0002327 128.9354 231.2070 14.71863417612149
UK-DMC 2                
1 35683U 09041C   20358.05669354  .00000094  00000-0  22574-4 0  9992
2 35683  97.6854 190.2228 0001271 107.6831 252.4514 14.71179133611904
RISAT 1                 
1 38248U 12017A   20358.08920167  .00000823  00000-0  54115-4 0  9990
2 38248  97.5639   5.0043 0003404 339.5069  20.6023 15.10291856477104
DMC3-FM1                
1 40715U 15032A   20358.21069896  .00000042  00000-0  14110-4 0  9994
2 40715  97.9118 247.4602 0015417 343.8849  16.1869 14.73679469293456
DMC3-FM2                
1 40716U 15032B   20358.23355328  .00000055  00000-0  16074-4 0  9990
2 40716  97.9146 247.8999 0012928 354.1626   5.9431 14.73693321293468
DMC3-FM3                
1 40717U 15032C   20358.18785459  .00000058  00000-0  16465-4 0  9994
2 40717  97.9163 248.6097 0016310 344.8595  15.2127 14.73694793293455
